CCSDS_OMM_VERS = 2.0
CREATION_DATE  = 
ORIGINATOR     = 

OBJECT_NAME    = STARLINK-36520
OBJECT_ID      = 2026-008X
CENTER_NAME    = EARTH
REF_FRAME      = TEME
TIME_SYSTEM    = UTC
MEAN_ELEMENT_THEORY = SGP/SGP4

EPOCH          = 2026-01-26T20:00:01.999008
MEAN_MOTION    = 15.87972595
ECCENTRICITY   = .0001559
INCLINATION    = 43.0016
RA_OF_ASC_NODE = 87.6233
ARG_OF_PERICENTER = 270.0227
MEAN_ANOMALY   = 35.9579

EPHEMERIS_TYPE = 0
CLASSIFICATION_TYPE = U
NORAD_CAT_ID   = 67466
ELEMENT_SET_NO = 999
REV_AT_EPOCH   = 306
BSTAR          = -.61813E-2
MEAN_MOTION_DOT = -.1532178E-1
MEAN_MOTION_DDOT = 0

CCSDS_OMM_VERS = 2.0
CREATION_DATE  = 
ORIGINATOR     = 

OBJECT_NAME    = STARLINK-36425
OBJECT_ID      = 2026-008Y
CENTER_NAME    = EARTH
REF_FRAME      = TEME
TIME_SYSTEM    = UTC
MEAN_ELEMENT_THEORY = SGP/SGP4

EPOCH          = 2026-01-26T20:00:01.999008
MEAN_MOTION    = 15.87962736
ECCENTRICITY   = .0001584
INCLINATION    = 43.0016
RA_OF_ASC_NODE = 87.6160
ARG_OF_PERICENTER = 270.8298
MEAN_ANOMALY   = 38.0367

EPHEMERIS_TYPE = 0
CLASSIFICATION_TYPE = U
NORAD_CAT_ID   = 67467
ELEMENT_SET_NO = 999
REV_AT_EPOCH   = 306
BSTAR          = -.62209E-2
MEAN_MOTION_DOT = -.1540186E-1
MEAN_MOTION_DDOT = 0

CCSDS_OMM_VERS = 2.0
CREATION_DATE  = 
ORIGINATOR     = 

OBJECT_NAME    = STARLINK-36414
OBJECT_ID      = 2026-008Z
CENTER_NAME    = EARTH
REF_FRAME      = TEME
TIME_SYSTEM    = UTC
MEAN_ELEMENT_THEORY = SGP/SGP4

EPOCH          = 2026-01-26T20:00:01.999008
MEAN_MOTION    = 15.90280737
ECCENTRICITY   = .0001941
INCLINATION    = 43.0017
RA_OF_ASC_NODE = 87.4862
ARG_OF_PERICENTER = 274.1680
MEAN_ANOMALY   = 85.9762

EPHEMERIS_TYPE = 0
CLASSIFICATION_TYPE = U
NORAD_CAT_ID   = 67468
ELEMENT_SET_NO = 999
REV_AT_EPOCH   = 306
BSTAR          = -.44309E-2
MEAN_MOTION_DOT = -.1243446E-1
MEAN_MOTION_DDOT = 0

CCSDS_OMM_VERS = 2.0
CREATION_DATE  = 
ORIGINATOR     = 

OBJECT_NAME    = STARLINK-36441
OBJECT_ID      = 2026-008AA
CENTER_NAME    = EARTH
REF_FRAME      = TEME
TIME_SYSTEM    = UTC
MEAN_ELEMENT_THEORY = SGP/SGP4

EPOCH          = 2026-01-26T20:00:01.999008
MEAN_MOTION    = 15.90204264
ECCENTRICITY   = .0001774
INCLINATION    = 43.0015
RA_OF_ASC_NODE = 87.4395
ARG_OF_PERICENTER = 278.9204
MEAN_ANOMALY   = 99.4535

EPHEMERIS_TYPE = 0
CLASSIFICATION_TYPE = U
NORAD_CAT_ID   = 67469
ELEMENT_SET_NO = 999
REV_AT_EPOCH   = 306
BSTAR          = -.4753E-2
MEAN_MOTION_DOT = -.1318417E-1
MEAN_MOTION_DDOT = 0

CCSDS_OMM_VERS = 2.0
CREATION_DATE  = 
ORIGINATOR     = 

OBJECT_NAME    = STARLINK-36454
OBJECT_ID      = 2026-008AB
CENTER_NAME    = EARTH
REF_FRAME      = TEME
TIME_SYSTEM    = UTC
MEAN_ELEMENT_THEORY = SGP/SGP4

EPOCH          = 2026-01-26T20:00:01.999008
MEAN_MOTION    = 15.90198347
ECCENTRICITY   = .0001688
INCLINATION    = 43.0013
RA_OF_ASC_NODE = 87.4199
ARG_OF_PERICENTER = 275.6234
MEAN_ANOMALY   = 110.3867

EPHEMERIS_TYPE = 0
CLASSIFICATION_TYPE = U
NORAD_CAT_ID   = 67470
ELEMENT_SET_NO = 999
REV_AT_EPOCH   = 306
BSTAR          = -.51537E-2
MEAN_MOTION_DOT = -.1414841E-1
MEAN_MOTION_DDOT = 0

CCSDS_OMM_VERS = 2.0
CREATION_DATE  = 
ORIGINATOR     = 

OBJECT_NAME    = STARLINK-36334
OBJECT_ID      = 2026-008AC
CENTER_NAME    = EARTH
REF_FRAME      = TEME
TIME_SYSTEM    = UTC
MEAN_ELEMENT_THEORY = SGP/SGP4

EPOCH          = 2026-01-26T20:00:01.999008
MEAN_MOTION    = 15.90250121
ECCENTRICITY   = .0001835
INCLINATION    = 43.0015
RA_OF_ASC_NODE = 87.4638
ARG_OF_PERICENTER = 275.5504
MEAN_ANOMALY   = 93.2119

EPHEMERIS_TYPE = 0
CLASSIFICATION_TYPE = U
NORAD_CAT_ID   = 67471
ELEMENT_SET_NO = 999
REV_AT_EPOCH   = 306
BSTAR          = -.45784E-2
MEAN_MOTION_DOT = -.1278236E-1
MEAN_MOTION_DDOT = 0

CCSDS_OMM_VERS = 2.0
CREATION_DATE  = 
ORIGINATOR     = 

OBJECT_NAME    = STARLINK-36269
OBJECT_ID      = 2026-008AD
CENTER_NAME    = EARTH
REF_FRAME      = TEME
TIME_SYSTEM    = UTC
MEAN_ELEMENT_THEORY = SGP/SGP4

EPOCH          = 2026-01-26T20:00:01.999008
MEAN_MOTION    = 15.90130007
ECCENTRICITY   = .0001604
INCLINATION    = 43.0011
RA_OF_ASC_NODE = 87.3932
ARG_OF_PERICENTER = 277.9015
MEAN_ANOMALY   = 118.4641

EPHEMERIS_TYPE = 0
CLASSIFICATION_TYPE = U
NORAD_CAT_ID   = 67472
ELEMENT_SET_NO = 999
REV_AT_EPOCH   = 308
BSTAR          = -.58375E-2
MEAN_MOTION_DOT = -.1605243E-1
MEAN_MOTION_DDOT = 0

CCSDS_OMM_VERS = 2.0
CREATION_DATE  = 
ORIGINATOR     = 

OBJECT_NAME    = STARLINK-36408
OBJECT_ID      = 2026-008AE
CENTER_NAME    = EARTH
REF_FRAME      = TEME
TIME_SYSTEM    = UTC
MEAN_ELEMENT_THEORY = SGP/SGP4

EPOCH          = 2026-01-26T20:00:01.999008
MEAN_MOTION    = 15.89878982
ECCENTRICITY   = .0001552
INCLINATION    = 43.0012
RA_OF_ASC_NODE = 87.3547
ARG_OF_PERICENTER = 280.2761
MEAN_ANOMALY   = 131.3553

EPHEMERIS_TYPE = 0
CLASSIFICATION_TYPE = U
NORAD_CAT_ID   = 67473
ELEMENT_SET_NO = 999
REV_AT_EPOCH   = 308
BSTAR          = -.63007E-2
MEAN_MOTION_DOT = -.1696375E-1
MEAN_MOTION_DDOT = 0

CCSDS_OMM_VERS = 2.0
CREATION_DATE  = 
ORIGINATOR     = 

OBJECT_NAME    = ALSAT-3A
OBJECT_ID      = 2026-009A
CENTER_NAME    = EARTH
REF_FRAME      = TEME
TIME_SYSTEM    = UTC
MEAN_ELEMENT_THEORY = SGP/SGP4

EPOCH          = 2026-01-26T19:07:02.457408
MEAN_MOTION    = 15.03006211
ECCENTRICITY   = .0099341
INCLINATION    = 97.1800
RA_OF_ASC_NODE = 100.4144
ARG_OF_PERICENTER = 182.3545
MEAN_ANOMALY   = 177.7227

EPHEMERIS_TYPE = 0
CLASSIFICATION_TYPE = U
NORAD_CAT_ID   = 67474
ELEMENT_SET_NO = 999
REV_AT_EPOCH   = 175
BSTAR          = .4019E-3
MEAN_MOTION_DOT = .5965E-4
MEAN_MOTION_DDOT = 0

CCSDS_OMM_VERS = 2.0
CREATION_DATE  = 
ORIGINATOR     = 

OBJECT_NAME    = CZ-2C R/B
OBJECT_ID      = 2026-009B
CENTER_NAME    = EARTH
REF_FRAME      = TEME
TIME_SYSTEM    = UTC
MEAN_ELEMENT_THEORY = SGP/SGP4

EPOCH          = 2026-01-26T20:07:10.212960
MEAN_MOTION    = 15.23214430
ECCENTRICITY   = .0011462
INCLINATION    = 97.4702
RA_OF_ASC_NODE = 101.5602
ARG_OF_PERICENTER = 215.9355
MEAN_ANOMALY   = 144.1112

EPHEMERIS_TYPE = 0
CLASSIFICATION_TYPE = U
NORAD_CAT_ID   = 67475
ELEMENT_SET_NO = 999
REV_AT_EPOCH   = 178
BSTAR          = .41926E-3
MEAN_MOTION_DOT = .9872E-4
MEAN_MOTION_DDOT = 0

CCSDS_OMM_VERS = 2.0
CREATION_DATE  = 
ORIGINATOR     = 

OBJECT_NAME    = TIANQI-37
OBJECT_ID      = 2026-010A
CENTER_NAME    = EARTH
REF_FRAME      = TEME
TIME_SYSTEM    = UTC
MEAN_ELEMENT_THEORY = SGP/SGP4

EPOCH          = 2026-01-26T20:08:09.689856
MEAN_MOTION    = 14.14273328
ECCENTRICITY   = .0010397
INCLINATION    = 44.9836
RA_OF_ASC_NODE = 353.3375
ARG_OF_PERICENTER = 359.5276
MEAN_ANOMALY   = 0.5551

EPHEMERIS_TYPE = 0
CLASSIFICATION_TYPE = U
NORAD_CAT_ID   = 67476
ELEMENT_SET_NO = 999
REV_AT_EPOCH   = 156
BSTAR          = .20395E-3
MEAN_MOTION_DOT = .259E-5
MEAN_MOTION_DDOT = 0

CCSDS_OMM_VERS = 2.0
CREATION_DATE  = 
ORIGINATOR     = 

OBJECT_NAME    = TIANQI-38
OBJECT_ID      = 2026-010B
CENTER_NAME    = EARTH
REF_FRAME      = TEME
TIME_SYSTEM    = UTC
MEAN_ELEMENT_THEORY = SGP/SGP4

EPOCH          = 2026-01-26T20:06:28.458432
MEAN_MOTION    = 14.14423921
ECCENTRICITY   = .0010899
INCLINATION    = 44.9800
RA_OF_ASC_NODE = 353.3281
ARG_OF_PERICENTER = 2.2220
MEAN_ANOMALY   = 357.8666

EPHEMERIS_TYPE = 0
CLASSIFICATION_TYPE = U
NORAD_CAT_ID   = 67477
ELEMENT_SET_NO = 999
REV_AT_EPOCH   = 156
BSTAR          = .20083E-3
MEAN_MOTION_DOT = .254E-5
MEAN_MOTION_DDOT = 0

