STARLINK-36520          
1 67466U 26008X   26026.83335647 -.01532178  00000+0 -61813-2 0  9999
2 67466  43.0016  87.6233 0001559 270.0227  35.9579 15.87972595  3069
STARLINK-36425          
1 67467U 26008Y   26026.83335647 -.01540186  00000+0 -62209-2 0  9998
2 67467  43.0016  87.6160 0001584 270.8298  38.0367 15.87962736  3068
STARLINK-36414          
1 67468U 26008Z   26026.83335647 -.01243446  00000+0 -44309-2 0  9999
2 67468  43.0017  87.4862 0001941 274.1680  85.9762 15.90280737  3064
STARLINK-36441          
1 67469U 26008AA  26026.83335647 -.01318417  00000+0 -47530-2 0  9990
2 67469  43.0015  87.4395 0001774 278.9204  99.4535 15.90204264  3061
STARLINK-36454          
1 67470U 26008AB  26026.83335647 -.01414841  00000+0 -51537-2 0  9992
2 67470  43.0013  87.4199 0001688 275.6234 110.3867 15.90198347  3069
STARLINK-36334          
1 67471U 26008AC  26026.83335647 -.01278236  00000+0 -45784-2 0  9996
2 67471  43.0015  87.4638 0001835 275.5504  93.2119 15.90250121  3061
STARLINK-36269          
1 67472U 26008AD  26026.83335647 -.01605243  00000+0 -58375-2 0  9999
2 67472  43.0011  87.3932 0001604 277.9015 118.4641 15.90130007  3083
STARLINK-36408          
1 67473U 26008AE  26026.83335647 -.01696375  00000+0 -63007-2 0  9994
2 67473  43.0012  87.3547 0001552 280.2761 131.3553 15.89878982  3089
ALSAT-3A                
1 67474U 26009A   26026.79655622  .00005965  00000+0  40190-3 0  9994
2 67474  97.1800 100.4144 0099341 182.3545 177.7227 15.03006211  1758
CZ-2C R/B               
1 67475U 26009B   26026.83831265  .00009872  00000+0  41926-3 0  9998
2 67475  97.4702 101.5602 0011462 215.9355 144.1112 15.23214430  1784
TIANQI-37               
1 67476U 26010A   26026.83900104  .00000259  00000+0  20395-3 0  9997
2 67476  44.9836 353.3375 0010397 359.5276   0.5551 14.14273328  1565
TIANQI-38               
1 67477U 26010B   26026.83782938  .00000254  00000+0  20083-3 0  9990
2 67477  44.9800 353.3281 0010899   2.2220 357.8666 14.14423921  1562
